[{"OBJECT_NAME":"SL-16 R/B","OBJECT_ID":"1993-059B","EPOCH":"2026-03-20T23:33:34.095168","MEAN_MOTION":14.17234272,"ECCENTRICITY":0.0017878,"INCLINATION":70.9931,"RA_OF_ASC_NODE":347.3157,"ARG_OF_PERICENTER":200.1451,"MEAN_ANOMALY":159.8969,"EPHEMERIS_TYPE":0,"CLASSIFICATION_TYPE":"U","NORAD_CAT_ID":22803,"ELEMENT_SET_NO":999,"REV_AT_EPOCH":68113,"BSTAR":0.00012507338,"MEAN_MOTION_DOT":2.05e-6,"MEAN_MOTION_DDOT":0},{"OBJECT_NAME":"ARIANE 40 R/B","OBJECT_ID":"1993-061H","EPOCH":"2026-03-20T15:53:11.933088","MEAN_MOTION":14.32866309,"ECCENTRICITY":0.00096517,"INCLINATION":98.4895,"RA_OF_ASC_NODE":148.332,"ARG_OF_PERICENTER":248.7509,"MEAN_ANOMALY":111.2645,"EPHEMERIS_TYPE":0,"CLASSIFICATION_TYPE":"U","NORAD_CAT_ID":22830,"ELEMENT_SET_NO":999,"REV_AT_EPOCH":69567,"BSTAR":7.9655697e-5,"MEAN_MOTION_DOT":1.74e-6,"MEAN_MOTION_DDOT":0},{"OBJECT_NAME":"COSMOS 2278","OBJECT_ID":"1994-023A","EPOCH":"2026-03-20T21:55:24.918240","MEAN_MOTION":14.14378232,"ECCENTRICITY":0.00087917,"INCLINATION":71.0538,"RA_OF_ASC_NODE":151.618,"ARG_OF_PERICENTER":354.4084,"MEAN_ANOMALY":5.6939,"EPHEMERIS_TYPE":0,"CLASSIFICATION_TYPE":"U","NORAD_CAT_ID":23087,"ELEMENT_SET_NO":999,"REV_AT_EPOCH":64639,"BSTAR":-8.2846164e-5,"MEAN_MOTION_DOT":-2.06e-6,"MEAN_MOTION_DDOT":0},{"OBJECT_NAME":"SL-16 R/B","OBJECT_ID":"1994-023B","EPOCH":"2026-03-20T22:55:05.685888","MEAN_MOTION":14.15010446,"ECCENTRICITY":0.00054909,"INCLINATION":70.9996,"RA_OF_ASC_NODE":47.2268,"ARG_OF_PERICENTER":274.6545,"MEAN_ANOMALY":85.395,"EPHEMERIS_TYPE":0,"CLASSIFICATION_TYPE":"U","NORAD_CAT_ID":23088,"ELEMENT_SET_NO":999,"REV_AT_EPOCH":64768,"BSTAR":6.7955479e-5,"MEAN_MOTION_DOT":8.4e-7,"MEAN_MOTION_DDOT":0},{"OBJECT_NAME":"SL-16 R/B","OBJECT_ID":"1994-074B","EPOCH":"2026-03-20T22:53:40.600032","MEAN_MOTION":14.79420003,"ECCENTRICITY":0.000668,"INCLINATION":97.7094,"RA_OF_ASC_NODE":110.3149,"ARG_OF_PERICENTER":172.0024,"MEAN_ANOMALY":252.5735,"EPHEMERIS_TYPE":0,"CLASSIFICATION_TYPE":"U","NORAD_CAT_ID":23343,"ELEMENT_SET_NO":999,"REV_AT_EPOCH":68891,"BSTAR":5.8273048e-5,"MEAN_MOTION_DOT":3.86e-6,"MEAN_MOTION_DDOT":0},{"OBJECT_NAME":"SL-16 R/B","OBJECT_ID":"1994-077B","EPOCH":"2026-03-20T22:22:18.249024","MEAN_MOTION":14.15566609,"ECCENTRICITY":0.00024334,"INCLINATION":70.9848,"RA_OF_ASC_NODE":328.8389,"ARG_OF_PERICENTER":200.0078,"MEAN_ANOMALY":160.095,"EPHEMERIS_TYPE":0,"CLASSIFICATION_TYPE":"U","NORAD_CAT_ID":23405,"ELEMENT_SET_NO":999,"REV_AT_EPOCH":61782,"BSTAR":0.00016422168,"MEAN_MOTION_DOT":2.74e-6,"MEAN_MOTION_DDOT":0},{"OBJECT_NAME":"ARIANE 40+ R/B","OBJECT_ID":"1995-021B","EPOCH":"2026-03-20T10:33:22.969152","MEAN_MOTION":14.39779567,"ECCENTRICITY":0.00079374,"INCLINATION":98.4477,"RA_OF_ASC_NODE":150.7758,"ARG_OF_PERICENTER":108.5442,"MEAN_ANOMALY":262.0067,"EPHEMERIS_TYPE":0,"CLASSIFICATION_TYPE":"U","NORAD_CAT_ID":23561,"ELEMENT_SET_NO":999,"REV_AT_EPOCH":62079,"BSTAR":8.6751902e-5,"MEAN_MOTION_DOT":2.29e-6,"MEAN_MOTION_DDOT":0},{"OBJECT_NAME":"SL-16 R/B","OBJECT_ID":"1995-058B","EPOCH":"2026-03-20T22:33:08.253504","MEAN_MOTION":14.1550085,"ECCENTRICITY":0.00102494,"INCLINATION":71.0221,"RA_OF_ASC_NODE":156.6378,"ARG_OF_PERICENTER":105.0048,"MEAN_ANOMALY":255.221,"EPHEMERIS_TYPE":0,"CLASSIFICATION_TYPE":"U","NORAD_CAT_ID":23705,"ELEMENT_SET_NO":999,"REV_AT_EPOCH":56944,"BSTAR":1.9016034e-5,"MEAN_MOTION_DOT":-1.0e-7,"MEAN_MOTION_DDOT":0},{"OBJECT_NAME":"SL-16 R/B","OBJECT_ID":"1996-051B","EPOCH":"2026-03-20T12:08:28.901184","MEAN_MOTION":14.12418531,"ECCENTRICITY":0.00141638,"INCLINATION":70.7598,"RA_OF_ASC_NODE":152.3468,"ARG_OF_PERICENTER":131.0407,"MEAN_ANOMALY":229.194,"EPHEMERIS_TYPE":0,"CLASSIFICATION_TYPE":"U","NORAD_CAT_ID":24298,"ELEMENT_SET_NO":999,"REV_AT_EPOCH":52317,"BSTAR":8.0577666e-5,"MEAN_MOTION_DOT":1.0e-6,"MEAN_MOTION_DDOT":0},{"OBJECT_NAME":"ORBVIEW 2 (SEASTAR)","OBJECT_ID":"1997-037A","EPOCH":"2026-03-20T22:02:55.378464","MEAN_MOTION":14.35502369,"ECCENTRICITY":0.00027474,"INCLINATION":98.8585,"RA_OF_ASC_NODE":244.529,"ARG_OF_PERICENTER":48.1543,"MEAN_ANOMALY":311.9876,"EPHEMERIS_TYPE":0,"CLASSIFICATION_TYPE":"U","NORAD_CAT_ID":24883,"ELEMENT_SET_NO":999,"REV_AT_EPOCH":51008,"BSTAR":9.2284089e-5,"MEAN_MOTION_DOT":2.19e-6,"MEAN_MOTION_DDOT":0},{"OBJECT_NAME":"SL-16 R/B","OBJECT_ID":"1998-043G","EPOCH":"2026-03-20T21:18:04.928256","MEAN_MOTION":14.26052163,"ECCENTRICITY":0.00096277,"INCLINATION":98.8274,"RA_OF_ASC_NODE":33.3315,"ARG_OF_PERICENTER":348.4017,"MEAN_ANOMALY":11.6939,"EPHEMERIS_TYPE":0,"CLASSIFICATION_TYPE":"U","NORAD_CAT_ID":25400,"ELEMENT_SET_NO":999,"REV_AT_EPOCH":44058,"BSTAR":3.7825004e-5,"MEAN_MOTION_DOT":4.5e-7,"MEAN_MOTION_DDOT":0},{"OBJECT_NAME":"SL-16 R/B","OBJECT_ID":"1998-045B","EPOCH":"2026-03-20T22:40:55.162560","MEAN_MOTION":14.16195411,"ECCENTRICITY":0.00075252,"INCLINATION":71.0119,"RA_OF_ASC_NODE":157.9061,"ARG_OF_PERICENTER":350.1616,"MEAN_ANOMALY":9.9359,"EPHEMERIS_TYPE":0,"CLASSIFICATION_TYPE":"U","NORAD_CAT_ID":25407,"ELEMENT_SET_NO":999,"REV_AT_EPOCH":42869,"BSTAR":3.245018e-5,"MEAN_MOTION_DOT":1.7e-7,"MEAN_MOTION_DDOT":0},{"OBJECT_NAME":"ISS (ZARYA)","OBJECT_ID":"1998-067A","EPOCH":"2026-03-20T20:55:56.727840","MEAN_MOTION":15.48402839,"ECCENTRICITY":0.00063663,"INCLINATION":51.6346,"RA_OF_ASC_NODE":17.0785,"ARG_OF_PERICENTER":213.2716,"MEAN_ANOMALY":146.7873,"EPHEMERIS_TYPE":0,"CLASSIFICATION_TYPE":"U","NORAD_CAT_ID":25544,"ELEMENT_SET_NO":999,"REV_AT_EPOCH":55806,"BSTAR":0.00018572808,"MEAN_MOTION_DOT":9.59e-5,"MEAN_MOTION_DDOT":0},{"OBJECT_NAME":"CZ-4B R/B","OBJECT_ID":"1999-025C","EPOCH":"2026-03-20T21:42:34.883424","MEAN_MOTION":14.18267383,"ECCENTRICITY":0.00362266,"INCLINATION":98.6603,"RA_OF_ASC_NODE":123.9193,"ARG_OF_PERICENTER":313.8351,"MEAN_ANOMALY":219.2371,"EPHEMERIS_TYPE":0,"CLASSIFICATION_TYPE":"U","NORAD_CAT_ID":25732,"ELEMENT_SET_NO":999,"REV_AT_EPOCH":38975,"BSTAR":3.910872e-5,"MEAN_MOTION_DOT":3.8e-7,"MEAN_MOTION_DDOT":0},{"OBJECT_NAME":"OKEAN-O","OBJECT_ID":"1999-039A","EPOCH":"2026-03-20T20:56:15.817920","MEAN_MOTION":14.80352159,"ECCENTRICITY":9.54e-5,"INCLINATION":97.9418,"RA_OF_ASC_NODE":139.649,"ARG_OF_PERICENTER":77.7889,"MEAN_ANOMALY":282.3429,"EPHEMERIS_TYPE":0,"CLASSIFICATION_TYPE":"U","NORAD_CAT_ID":25860,"ELEMENT_SET_NO":999,"REV_AT_EPOCH":43604,"BSTAR":7.892344e-5,"MEAN_MOTION_DOT":5.5e-6,"MEAN_MOTION_DDOT":0},{"OBJECT_NAME":"SL-16 R/B","OBJECT_ID":"1999-039B","EPOCH":"2026-03-20T21:49:21.893088","MEAN_MOTION":14.81745756,"ECCENTRICITY":0.00139707,"INCLINATION":97.9942,"RA_OF_ASC_NODE":138.988,"ARG_OF_PERICENTER":216.7284,"MEAN_ANOMALY":143.2972,"EPHEMERIS_TYPE":0,"CLASSIFICATION_TYPE":"U","NORAD_CAT_ID":25861,"ELEMENT_SET_NO":999,"REV_AT_EPOCH":43852,"BSTAR":6.3637488e-5,"MEAN_MOTION_DOT":4.48e-6,"MEAN_MOTION_DDOT":0},{"OBJECT_NAME":"DELTA 2 R/B","OBJECT_ID":"1999-041E","EPOCH":"2026-03-20T21:50:26.146176","MEAN_MOTION":14.11864775,"ECCENTRICITY":0.05026105,"INCLINATION":51.7605,"RA_OF_ASC_NODE":256.4597,"ARG_OF_PERICENTER":21.5275,"MEAN_ANOMALY":340.6,"EPHEMERIS_TYPE":0,"CLASSIFICATION_TYPE":"U","NORAD_CAT_ID":25876,"ELEMENT_SET_NO":999,"REV_AT_EPOCH":36461,"BSTAR":8.8581804e-5,"MEAN_MOTION_DOT":3.03e-6,"MEAN_MOTION_DDOT":0}]
